{"type": "FeatureCollection", "features": [ {"type": "Feature", "properties": {"norad_id": 29878, "name": "FENGYUN 1C DEB", "group": "fengyun-1c-debris", "lat": -65.58663291227857, "lon": -33.87259453983226, "alt_km": 539.2425886579549, "timestamp": "2025-12-15T10:55:21.414763+00:00", "meta": {"OBJECT_NAME": "FENGYUN 1C DEB", "OBJECT_ID": "1999-025FY", "EPOCH": "2025-12-14T17:56:13.659648", "MEAN_MOTION": 15.10392596, "ECCENTRICITY": 0.00263877, "INCLINATION": 96.9485, "RA_OF_ASC_NODE": 161.0709, "ARG_OF_PERICENTER": 166.4374, "MEAN_ANOMALY": 193.7572, "EPHEMERIS_TYPE": 0, "CLASSIFICATION_TYPE": "U", "NORAD_CAT_ID": 29878, "ELEMENT_SET_NO": 999, "REV_AT_EPOCH": 98678, "BSTAR": 0.0081306966, "MEAN_MOTION_DOT": 0.00136959, "MEAN_MOTION_DDOT": 0}, "tle": {"line1": "1 29878U 99025FY  25348.74738032  .00136959  00000+0  81307-2 0  9998", "line2": "2 29878  96.9485 161.0709 0026387 166.4374 193.7572 15.10392596986781"}}, "geometry": {"type": "Point", "coordinates": [-33.87259453983226, -65.58663291227857]}}, {"type": "Feature", "properties": {"norad_id": 29880, "name": "FENGYUN 1C DEB", "group": "fengyun-1c-debris", "lat": 62.260624149892436, "lon": -108.20885072813613, "alt_km": 762.0191142852582, "timestamp": "2025-12-15T10:55:21.414773+00:00", "meta": {"OBJECT_NAME": "FENGYUN 1C DEB", "OBJECT_ID": "1999-025GA", "EPOCH": "2025-12-14T17:42:32.732640", "MEAN_MOTION": 13.93919167, "ECCENTRICITY": 0.02318493, "INCLINATION": 98.1947, "RA_OF_ASC_NODE": 267.0571, "ARG_OF_PERICENTER": 95.8939, "MEAN_ANOMALY": 331.7548, "EPHEMERIS_TYPE": 0, "CLASSIFICATION_TYPE": "U", "NORAD_CAT_ID": 29880, "ELEMENT_SET_NO": 999, "REV_AT_EPOCH": 95590, "BSTAR": 0.0011826669, "MEAN_MOTION_DOT": 1.917e-05, "MEAN_MOTION_DDOT": 0}, "tle": {"line1": "1 29880U 99025GA  25348.73787885  .00001917  00000+0  11827-2 0  9995", "line2": "2 29880  98.1947 267.0571 0231849  95.8939 331.7548 13.93919167955903"}}, "geometry": {"type": "Point", "coordinates": [-108.20885072813613, 62.260624149892436]}}, {"type": "Feature", "properties": {"norad_id": 29881, "name": "FENGYUN 1C DEB", "group": "fengyun-1c-debris", "lat": -6.6277164927400625, "lon": 140.32008693097202, "alt_km": 1150.8650594122946, "timestamp": "2025-12-15T10:55:21.414783+00:00", "meta": {"OBJECT_NAME": "FENGYUN 1C DEB", "OBJECT_ID": "1999-025GB", "EPOCH": "2025-12-14T21:58:49.003680", "MEAN_MOTION": 13.5962461, "ECCENTRICITY": 0.02925782, "INCLINATION": 98.7224, "RA_OF_ASC_NODE": 320.8611, "ARG_OF_PERICENTER": 66.0548, "MEAN_ANOMALY": 359.5542, "EPHEMERIS_TYPE": 0, "CLASSIFICATION_TYPE": "U", "NORAD_CAT_ID": 29881, "ELEMENT_SET_NO": 999, "REV_AT_EPOCH": 93264, "BSTAR": 0.0021823135, "MEAN_MOTION_DOT": 2.11e-05, "MEAN_MOTION_DDOT": 0}, "tle": {"line1": "1 29881U 99025GB  25348.91584495  .00002110  00000+0  21823-2 0  9991", "line2": "2 29881  98.7224 320.8611 0292578  66.0548 359.5542 13.59624610932649"}}, "geometry": {"type": "Point", "coordinates": [140.32008693097202, -6.6277164927400625]}}, {"type": "Feature", "properties": {"norad_id": 29884, "name": "FENGYUN 1C DEB", "group": "fengyun-1c-debris", "lat": -33.9596942097791, "lon": -163.33263859244758, "alt_km": 760.787460607703, "timestamp": "2025-12-15T10:55:21.414794+00:00", "meta": {"OBJECT_NAME": "FENGYUN 1C DEB", "OBJECT_ID": "1999-025GE", "EPOCH": "2025-12-14T16:09:49.701024", "MEAN_MOTION": 14.40306268, "ECCENTRICITY": 0.00444994, "INCLINATION": 99.6037, "RA_OF_ASC_NODE": 22.3391, "ARG_OF_PERICENTER": 131.508, "MEAN_ANOMALY": 351.8852, "EPHEMERIS_TYPE": 0, "CLASSIFICATION_TYPE": "U", "NORAD_CAT_ID": 29884, "ELEMENT_SET_NO": 999, "REV_AT_EPOCH": 98577, "BSTAR": 0.00066229212, "MEAN_MOTION_DOT": 2.071e-05, "MEAN_MOTION_DDOT": 0}, "tle": {"line1": "1 29884U 99025GE  25348.67349191  .00002071  00000+0  66229-3 0  9995", "line2": "2 29884  99.6037  22.3391 0044499 131.5080 351.8852 14.40306268985777"}}, "geometry": {"type": "Point", "coordinates": [-163.33263859244758, -33.9596942097791]}}, {"type": "Feature", "properties": {"norad_id": 29885, "name": "FENGYUN 1C DEB", "group": "fengyun-1c-debris", "lat": 7.934162838673315, "lon": 105.48509938607104, "alt_km": 766.3402549418815, "timestamp": "2025-12-15T10:55:21.414804+00:00", "meta": {"OBJECT_NAME": "FENGYUN 1C DEB", "OBJECT_ID": "1999-025GF", "EPOCH": "2025-12-14T19:05:17.107296", "MEAN_MOTION": 14.13582364, "ECCENTRICITY": 0.01184929, "INCLINATION": 98.3555, "RA_OF_ASC_NODE": 283.6948, "ARG_OF_PERICENTER": 158.3557, "MEAN_ANOMALY": 257.5392, "EPHEMERIS_TYPE": 0, "CLASSIFICATION_TYPE": "U", "NORAD_CAT_ID": 29885, "ELEMENT_SET_NO": 999, "REV_AT_EPOCH": 97486, "BSTAR": 0.00013967346, "MEAN_MOTION_DOT": 2.42e-06, "MEAN_MOTION_DDOT": 0}, "tle": {"line1": "1 29885U 99025GF  25348.79533689  .00000242  00000+0  13967-3 0  9995", "line2": "2 29885  98.3555 283.6948 0118492 158.3557 257.5392 14.13582364974862"}}, "geometry": {"type": "Point", "coordinates": [105.48509938607104, 7.934162838673315]}}, {"type": "Feature", "properties": {"norad_id": 29887, "name": "FENGYUN 1C DEB", "group": "fengyun-1c-debris", "lat": 36.535462121715675, "lon": -102.38073882995721, "alt_km": 956.2290197843458, "timestamp": "2025-12-15T10:55:21.414814+00:00", "meta": {"OBJECT_NAME": "FENGYUN 1C DEB", "OBJECT_ID": "1999-025GH", "EPOCH": "2025-12-14T19:46:03.772128", "MEAN_MOTION": 14.33720685, "ECCENTRICITY": 0.02868363, "INCLINATION": 98.7181, "RA_OF_ASC_NODE": 70.4541, "ARG_OF_PERICENTER": 352.9911, "MEAN_ANOMALY": 130.9774, "EPHEMERIS_TYPE": 0, "CLASSIFICATION_TYPE": "U", "NORAD_CAT_ID": 29887, "ELEMENT_SET_NO": 999, "REV_AT_EPOCH": 98004, "BSTAR": 0.00049735669, "MEAN_MOTION_DOT": 2.134e-05, "MEAN_MOTION_DDOT": 0}, "tle": {"line1": "1 29887U 99025GH  25348.82365477  .00002134  00000+0  49736-3 0  9994", "line2": "2 29887  98.7181  70.4541 0286836 352.9911 130.9774 14.33720685980045"}}, "geometry": {"type": "Point", "coordinates": [-102.38073882995721, 36.535462121715675]}}, {"type": "Feature", "properties": {"norad_id": 29888, "name": "FENGYUN 1C DEB", "group": "fengyun-1c-debris", "lat": 80.58177407117486, "lon": 104.81097707801463, "alt_km": 746.857507325416, "timestamp": "2025-12-15T10:55:21.414824+00:00", "meta": {"OBJECT_NAME": "FENGYUN 1C DEB", "OBJECT_ID": "1999-025GJ", "EPOCH": "2025-12-14T19:18:26.475840", "MEAN_MOTION": 14.19860761, "ECCENTRICITY": 0.02749846, "INCLINATION": 99.1917, "RA_OF_ASC_NODE": 181.5955, "ARG_OF_PERICENTER": 19.4952, "MEAN_ANOMALY": 341.6496, "EPHEMERIS_TYPE": 0, "CLASSIFICATION_TYPE": "U", "NORAD_CAT_ID": 29888, "ELEMENT_SET_NO": 999, "REV_AT_EPOCH": 97533, "BSTAR": 0.00038776301, "MEAN_MOTION_DOT": 1.148e-05, "MEAN_MOTION_DDOT": 0}, "tle": {"line1": "1 29888U 99025GJ  25348.80447310  .00001148  00000+0  38776-3 0  9996", "line2": "2 29888  99.1917 181.5955 0274984  19.4952 341.6496 14.19860761975334"}}, "geometry": {"type": "Point", "coordinates": [104.81097707801463, 80.58177407117486]}}, {"type": "Feature", "properties": {"norad_id": 29889, "name": "FENGYUN 1C DEB", "group": "fengyun-1c-debris", "lat": 70.16019783815993, "lon": -45.412958238715206, "alt_km": 811.7999285660353, "timestamp": "2025-12-15T10:55:21.414835+00:00", "meta": {"OBJECT_NAME": "FENGYUN 1C DEB", "OBJECT_ID": "1999-025GK", "EPOCH": "2025-12-14T21:25:57.033408", "MEAN_MOTION": 14.1351398, "ECCENTRICITY": 0.01543892, "INCLINATION": 99.4769, "RA_OF_ASC_NODE": 106.4144, "ARG_OF_PERICENTER": 33.0995, "MEAN_ANOMALY": 93.9613, "EPHEMERIS_TYPE": 0, "CLASSIFICATION_TYPE": "U", "NORAD_CAT_ID": 29889, "ELEMENT_SET_NO": 999, "REV_AT_EPOCH": 97349, "BSTAR": 0.00028085868, "MEAN_MOTION_DOT": 5.43e-06, "MEAN_MOTION_DDOT": 0}, "tle": {"line1": "1 29889U 99025GK  25348.89302122  .00000543  00000+0  28086-3 0  9998", "line2": "2 29889  99.4769 106.4144 0154389  33.0995  93.9613 14.13513980973499"}}, "geometry": {"type": "Point", "coordinates": [-45.412958238715206, 70.16019783815993]}}, {"type": "Feature", "properties": {"norad_id": 29890, "name": "FENGYUN 1C DEB", "group": "fengyun-1c-debris", "lat": 60.72667250221137, "lon": 93.8615813405215, "alt_km": 798.5563034170518, "timestamp": "2025-12-15T10:55:21.414845+00:00", "meta": {"OBJECT_NAME": "FENGYUN 1C DEB", "OBJECT_ID": "1999-025GL", "EPOCH": "2025-12-14T21:07:57.196704", "MEAN_MOTION": 14.23046058, "ECCENTRICITY": 0.00146982, "INCLINATION": 99.4676, "RA_OF_ASC_NODE": 110.5626, "ARG_OF_PERICENTER": 67.8507, "MEAN_ANOMALY": 292.4227, "EPHEMERIS_TYPE": 0, "CLASSIFICATION_TYPE": "U", "NORAD_CAT_ID": 29890, "ELEMENT_SET_NO": 999, "REV_AT_EPOCH": 97481, "BSTAR": 0.00074359306, "MEAN_MOTION_DOT": 1.628e-05, "MEAN_MOTION_DDOT": 0}, "tle": {"line1": "1 29890U 99025GL  25348.88052311  .00001628  00000+0  74359-3 0  9990", "line2": "2 29890  99.4676 110.5626 0014698  67.8507 292.4227 14.23046058974813"}}, "geometry": {"type": "Point", "coordinates": [93.8615813405215, 60.72667250221137]}}, {"type": "Feature", "properties": {"norad_id": 29891, "name": "FENGYUN 1C DEB", "group": "fengyun-1c-debris", "lat": 57.29844787541274, "lon": -174.7024398561125, "alt_km": 917.3601804897535, "timestamp": "2025-12-15T10:55:21.414856+00:00", "meta": {"OBJECT_NAME": "FENGYUN 1C DEB", "OBJECT_ID": "1999-025GM", "EPOCH": "2025-12-14T22:37:10.218432", "MEAN_MOTION": 14.00000098, "ECCENTRICITY": 0.00611934, "INCLINATION": 98.7266, "RA_OF_ASC_NODE": 350.9674, "ARG_OF_PERICENTER": 254.1363, "MEAN_ANOMALY": 165.7513, "EPHEMERIS_TYPE": 0, "CLASSIFICATION_TYPE": "U", "NORAD_CAT_ID": 29891, "ELEMENT_SET_NO": 999, "REV_AT_EPOCH": 96519, "BSTAR": 0.00049630615, "MEAN_MOTION_DOT": 7e-06, "MEAN_MOTION_DDOT": 0}, "tle": {"line1": "1 29891U 99025GM  25348.94247938  .00000700  00000+0  49631-3 0  9994", "line2": "2 29891  98.7266 350.9674 0061193 254.1363 165.7513 14.00000098965197"}}, "geometry": {"type": "Point", "coordinates": [-174.7024398561125, 57.29844787541274]}}]}